GEOSCAN 3 (RS92S3)      
1 64893U 25155T   26202.26538794  .00014844  00000+0  41903-3 0  9994
2 64893  97.4558 172.5709 0008301  71.7003 288.5143 15.36446030 86086
INNOSAT 3 (RS92S0)      
1 64894U 25155U   26202.24952791  .00033120  00000+0  67505-3 0  9994
2 64894  97.4503 174.6254 0007837  77.2515 282.9609 15.46134560 86221
KNACKSAT-2              
1 67683U 98067XZ  26202.01445164  .00044153  00000+0  48284-3 0  9992
2 67683  51.6271 123.9445 0007840 347.8251  12.2553 15.62823140 25569
