OBJECT_NAME,OBJECT_ID,EPOCH,MEAN_MOTION,ECCENTRICITY,INCLINATION,RA_OF_ASC_NODE,ARG_OF_PERICENTER,MEAN_ANOMALY,EPHEMERIS_TYPE,CLASSIFICATION_TYPE,NORAD_CAT_ID,ELEMENT_SET_NO,REV_AT_EPOCH,BSTAR,MEAN_MOTION_DOT,MEAN_MOTION_DDOT
GEOSCAN 3 (RS92S3),2025-155T,2026-07-21T06:22:09.518016,15.36446030,.00083014,97.4558,172.5709,71.7003,288.5143,0,U,64893,999,8608,.4190332E-3,.14844E-3,0
INNOSAT 3 (RS92S0),2025-155U,2026-07-21T05:59:19.211424,15.46134560,.00078372,97.4503,174.6254,77.2515,282.9609,0,U,64894,999,8622,.67504665E-3,.3312E-3,0
KNACKSAT-2,1998-067XZ,2026-07-21T00:20:48.621696,15.62823140,.00078407,51.6271,123.9445,347.8251,12.2553,0,U,67683,999,2556,.48283553E-3,.44153E-3,0
